{
  "type": "FeatureCollection",
  "features": [
    {
      "type": "Feature",
      "properties": {
        "norad_id": 36274,
        "name": "FENGYUN 1C DEB",
        "group": "fengyun-1c-debris",
        "lat": 27.515148876618742,
        "lon": 71.61494251038312,
        "alt_km": 854.6620535430702,
        "timestamp": "2025-12-27T16:33:30.510951+00:00",
        "meta_object_name": "FENGYUN 1C DEB",
        "meta_object_id": "1999-025DXB",
        "meta_epoch": "2025-12-24T23:29:20.675328",
        "meta_mean_motion": 14.23624847,
        "meta_eccentricity": 0.00631497,
        "meta_inclination": 99.1381,
        "meta_ra_of_asc_node": 73.6094,
        "meta_arg_of_pericenter": 196.6447,
        "meta_mean_anomaly": 343.9967,
        "meta_ephemeris_type": 0,
        "meta_classification_type": "U",
        "meta_norad_cat_id": 36274,
        "meta_element_set_no": 999,
        "meta_rev_at_epoch": 63159,
        "meta_bstar": 0.0030627834,
        "meta_mean_motion_dot": 7.085e-05,
        "meta_mean_motion_ddot": 0,
        "tle_line1": "1 36274U 99025DXB 25358.97871152  .00007085  00000+0  30628-2 0  9990",
        "tle_line2": "2 36274  99.1381  73.6094 0063149 196.6447 343.9967 14.23624847631590"
      },
      "geometry": {
        "type": "Point",
        "coordinates": [
          71.61494251038312,
          27.515148876618742
        ]
      }
    },
    {
      "type": "Feature",
      "properties": {
        "norad_id": 36278,
        "name": "FENGYUN 1C DEB",
        "group": "fengyun-1c-debris",
        "lat": -72.1138006393401,
        "lon": -49.75169993864897,
        "alt_km": 806.6129752535835,
        "timestamp": "2025-12-27T16:33:30.510961+00:00",
        "meta_object_name": "FENGYUN 1C DEB",
        "meta_object_id": "1999-025DXF",
        "meta_epoch": "2025-12-25T12:23:20.936256",
        "meta_mean_motion": 14.17404058,
        "meta_eccentricity": 0.0060493,
        "meta_inclination": 99.1253,
        "meta_ra_of_asc_node": 278.1472,
        "meta_arg_of_pericenter": 254.2677,
        "meta_mean_anomaly": 105.1819,
        "meta_ephemeris_type": 0,
        "meta_classification_type": "U",
        "meta_norad_cat_id": 36278,
        "meta_element_set_no": 999,
        "meta_rev_at_epoch": 93657,
        "meta_bstar": 0.0004649,
        "meta_mean_motion_dot": 9.11e-06,
        "meta_mean_motion_ddot": 0,
        "tle_line1": "1 36278U 99025DXF 25359.51621454  .00000911  00000+0  46490-3 0  9999",
        "tle_line2": "2 36278  99.1253 278.1472 0060493 254.2677 105.1819 14.17404058936572"
      },
      "geometry": {
        "type": "Point",
        "coordinates": [
          -49.75169993864897,
          -72.1138006393401
        ]
      }
    },
    {
      "type": "Feature",
      "properties": {
        "norad_id": 36279,
        "name": "FENGYUN 1C DEB",
        "group": "fengyun-1c-debris",
        "lat": 14.004785071910828,
        "lon": 161.23860796989663,
        "alt_km": 884.1798556329413,
        "timestamp": "2025-12-27T16:33:30.510971+00:00",
        "meta_object_name": "FENGYUN 1C DEB",
        "meta_object_id": "1999-025DXG",
        "meta_epoch": "2025-12-24T04:36:30.849408",
        "meta_mean_motion": 14.1473428,
        "meta_eccentricity": 0.00624156,
        "meta_inclination": 98.5623,
        "meta_ra_of_asc_node": 335.7298,
        "meta_arg_of_pericenter": 22.9202,
        "meta_mean_anomaly": 337.4736,
        "meta_ephemeris_type": 0,
        "meta_classification_type": "U",
        "meta_norad_cat_id": 36279,
        "meta_element_set_no": 999,
        "meta_rev_at_epoch": 89201,
        "meta_bstar": 0.00014307987,
        "meta_mean_motion_dot": 2.39e-06,
        "meta_mean_motion_ddot": 0,
        "tle_line1": "1 36279U 99025DXG 25358.19202372  .00000239  00000+0  14308-3 0  9993",
        "tle_line2": "2 36279  98.5623 335.7298 0062415  22.9202 337.4736 14.14734280892011"
      },
      "geometry": {
        "type": "Point",
        "coordinates": [
          161.23860796989663,
          14.004785071910828
        ]
      }
    },
    {
      "type": "Feature",
      "properties": {
        "norad_id": 36280,
        "name": "FENGYUN 1C DEB",
        "group": "fengyun-1c-debris",
        "lat": -62.75457475605212,
        "lon": 47.7299049047515,
        "alt_km": 864.7764286297843,
        "timestamp": "2025-12-27T16:33:30.510983+00:00",
        "meta_object_name": "FENGYUN 1C DEB",
        "meta_object_id": "1999-025DXH",
        "meta_epoch": "2025-12-24T22:59:16.157760",
        "meta_mean_motion": 14.09776084,
        "meta_eccentricity": 0.00626128,
        "meta_inclination": 98.7659,
        "meta_ra_of_asc_node": 27.633,
        "meta_arg_of_pericenter": 30.8932,
        "meta_mean_anomaly": 87.4685,
        "meta_ephemeris_type": 0,
        "meta_classification_type": "U",
        "meta_norad_cat_id": 36280,
        "meta_element_set_no": 999,
        "meta_rev_at_epoch": 86526,
        "meta_bstar": 0.00090348933,
        "meta_mean_motion_dot": 1.574e-05,
        "meta_mean_motion_ddot": 0,
        "tle_line1": "1 36280U 99025DXH 25358.95782590  .00001574  00000+0  90349-3 0  9996",
        "tle_line2": "2 36280  98.7659  27.6330 0062612  30.8932  87.4685 14.09776084865269"
      },
      "geometry": {
        "type": "Point",
        "coordinates": [
          47.7299049047515,
          -62.75457475605212
        ]
      }
    },
    {
      "type": "Feature",
      "properties": {
        "norad_id": 36281,
        "name": "FENGYUN 1C DEB",
        "group": "fengyun-1c-debris",
        "lat": 75.87582083903645,
        "lon": 143.26322552265887,
        "alt_km": 834.8477061880849,
        "timestamp": "2025-12-27T16:33:30.510994+00:00",
        "meta_object_name": "FENGYUN 1C DEB",
        "meta_object_id": "1999-025DXJ",
        "meta_epoch": "2025-12-26T13:36:40.014720",
        "meta_mean_motion": 13.60344701,
        "meta_eccentricity": 0.029262,
        "meta_inclination": 99.2589,
        "meta_ra_of_asc_node": 281.79,
        "meta_arg_of_pericenter": 75.2289,
        "meta_mean_anomaly": 288.108,
        "meta_ephemeris_type": 0,
        "meta_classification_type": "U",
        "meta_norad_cat_id": 36281,
        "meta_element_set_no": 999,
        "meta_rev_at_epoch": 84705,
        "meta_bstar": 0.0039892,
        "meta_mean_motion_dot": 3.935e-05,
        "meta_mean_motion_ddot": 0,
        "tle_line1": "1 36281U 99025DXJ 25360.56712980  .00003935  00000+0  39892-2 0  9991",
        "tle_line2": "2 36281  99.2589 281.7900 0292620  75.2289 288.1080 13.60344701847055"
      },
      "geometry": {
        "type": "Point",
        "coordinates": [
          143.26322552265887,
          75.87582083903645
        ]
      }
    },
    {
      "type": "Feature",
      "properties": {
        "norad_id": 36283,
        "name": "FENGYUN 1C DEB",
        "group": "fengyun-1c-debris",
        "lat": -55.54893044067768,
        "lon": 136.08785610093744,
        "alt_km": 578.8398367696782,
        "timestamp": "2025-12-27T16:33:30.511006+00:00",
        "meta_object_name": "FENGYUN 1C DEB",
        "meta_object_id": "1999-025DXL",
        "meta_epoch": "2025-12-26T15:36:31.008096",
        "meta_mean_motion": 15.07090772,
        "meta_eccentricity": 0.00655595,
        "meta_inclination": 99.4228,
        "meta_ra_of_asc_node": 328.8263,
        "meta_arg_of_pericenter": 6.7735,
        "meta_mean_anomaly": 353.4357,
        "meta_ephemeris_type": 0,
        "meta_classification_type": "U",
        "meta_norad_cat_id": 36283,
        "meta_element_set_no": 999,
        "meta_rev_at_epoch": 66875,
        "meta_bstar": 0.0022988474,
        "meta_mean_motion_dot": 0.00036316,
        "meta_mean_motion_ddot": 0,
        "tle_line1": "1 36283U 99025DXL 25360.65035889  .00036316  00000+0  22988-2 0  9996",
        "tle_line2": "2 36283  99.4228 328.8263 0065559   6.7735 353.4357 15.07090772668758"
      },
      "geometry": {
        "type": "Point",
        "coordinates": [
          136.08785610093744,
          -55.54893044067768
        ]
      }
    },
    {
      "type": "Feature",
      "properties": {
        "norad_id": 36644,
        "name": "FENGYUN 1C DEB",
        "group": "fengyun-1c-debris",
        "lat": -49.03090504938055,
        "lon": -51.60907055929314,
        "alt_km": 1035.6020529804591,
        "timestamp": "2025-12-27T16:33:30.511016+00:00",
        "meta_object_name": "FENGYUN 1C DEB",
        "meta_object_id": "1999-025DXN",
        "meta_epoch": "2025-12-20T03:15:14.582880",
        "meta_mean_motion": 13.5921712,
        "meta_eccentricity": 0.0285778,
        "meta_inclination": 98.4233,
        "meta_ra_of_asc_node": 131.7114,
        "meta_arg_of_pericenter": 160.4918,
        "meta_mean_anomaly": 200.7431,
        "meta_ephemeris_type": 0,
        "meta_classification_type": "U",
        "meta_norad_cat_id": 36644,
        "meta_element_set_no": 999,
        "meta_rev_at_epoch": 61668,
        "meta_bstar": 0.0010197403,
        "meta_mean_motion_dot": 9.49e-06,
        "meta_mean_motion_ddot": 0,
        "tle_line1": "1 36644U 99025DXN 25354.13558545  .00000949  00000+0  10197-2 0  9994",
        "tle_line2": "2 36644  98.4233 131.7114 0285778 160.4918 200.7431 13.59217120616683"
      },
      "geometry": {
        "type": "Point",
        "coordinates": [
          -51.60907055929314,
          -49.03090504938055
        ]
      }
    }
  ]
}